#aV2008  8 12  0  0   .00000000      96 DD+AD WGS84 FIT  NGA
## 1492 172800.00000000   900.00000000 54690  .0000000000000
+   31     2  3  4  5  6  7  8  9 10 11 12 13 14 15 16 17 18
+         19 20 21 22 23 24 25 26 27 28 29 30 31 32  0  0  0
+          0  0  0  0  0  0  0  0  0  0  0  0  0  0  0  0  0
+          0  0  0  0  0  0  0  0  0  0  0  0  0  0  0  0  0
+          0  0  0  0  0  0  0  0  0  0  0  0  0  0  0  0  0
++         0  0  0  0  0  0  0  0  0  0  0  0  0  0  0  0  0
++         0  0  0  0  0  0  0  0  0  0  0  0  0  0  0  0  0
++         0  0  0  0  0  0  0  0  0  0  0  0  0  0  0  0  0
++         0  0  0  0  0  0  0  0  0  0  0  0  0  0  0  0  0
++         0  0  0  0  0  0  0  0  0  0  0  0  0  0  0  0  0
%c cc cc ccc ccc cccc cccc cccc cccc ccccc ccccc ccccc ccccc
%c cc cc ccc ccc cccc cccc cccc cccc ccccc ccccc ccccc ccccc
%f  0.0000000  0.000000000  0.00000000000  0.000000000000000
%f  0.0000000  0.000000000  0.00000000000  0.000000000000000
%i    0    0    0    0      0      0      0      0         0
%i    0    0    0    0      0      0      0      0         0
/*      NGA, ST. LOUIS,MO.                                  
/*   EPHEMERIS COMPUTED FROM  3 DAYS OF DATA                
/* CCCCCCCCCCCCCCCCCCCCCCCCCCCCCCCCCCCCCCCCCCCCCCCCCCCCCCCCC
/* CCCCCCCCCCCCCCCCCCCCCCCCCCCCCCCCCCCCCCCCCCCCCCCCCCCCCCCCC
*  2008  8 12 21  0   .00000000                                                 
P  2 -21370.392070   9912.009823 -12043.835925    195.349840                    
V  2   8245.173934 -13186.451744 -26148.712272      -.027406                    
P  3  14954.076926  -5241.581006  21051.941352    268.754669                    
V  3  10466.012833  25427.342515   -734.103525       .051920                    
P  4 -18542.753180  -1043.951931 -19215.530675   -140.841717                    
V  4  15926.739646 -18183.125836 -14092.157517      -.104194                    
P  5  -3022.981189  15439.536354 -21683.879971    641.491703                    
V  5 -26603.025124  -4169.955592    885.484590     -2.832910                    
P  6  16405.674677   -141.259585  21079.081219    166.816345                    
V  6   7756.875544  25276.076380  -5931.424091       .012186                    
P  7    824.489915 -19190.314787  18275.233834      7.738299                    
V  7  17266.376259 -15712.873489 -17335.486327       .041347                    
P  8 -10583.916305 -10172.058440  22059.696834   -165.606440                    
V  8  20681.082607 -19074.186623    652.501246      -.014158                    
P  9 -13361.884737  21996.324294  -6900.645342      9.750716                    
V  9  -7040.557406   4355.965889  30486.625815       .018155                    
P 10 -23727.518885   2114.603065  11944.791089     -3.796821                    
V 10 -14157.172410  -6070.928738 -26421.129185      -.003216                    
P 11   9194.911436 -23932.602240  -6400.655341     21.765092                    
V 11   8601.553044  -4121.833120  28822.036455      -.006600                    
P 12  -9098.860057  12908.133736 -21258.177622   -354.705657                    
V 12 -26220.580667  -7218.051034   6910.684011       .011002                    
P 13  -5657.849652 -25946.954198   -729.106110    267.400410                    
V 13   1829.735255    364.004078 -32485.701243       .013762                    
P 14  14436.895178  16367.281632 -15113.413516   -232.930192                    
V 14   3460.989819  19010.558340  23621.972307       .045519                    
P 15  -9534.270499  15515.001475  19353.686060   -158.876317                    
V 15  -8377.126535 -23104.016702  14422.390650      -.064629                    
P 16  25639.259349   1722.121924   7197.465523    112.494081                    
V 16   8092.268956   4564.522673 -29980.989648      -.018633                    
P 17 -15249.821369 -15804.643131 -15011.166545     38.956100                    
V 17  -3156.707118 -18914.804451  22887.214792      -.001057                    
P 18  12365.568129  16412.846468  17220.879445   -145.729025                    
V 18 -21039.200675  -4213.810348  18974.961872       .042013                    
P 19  10102.166087 -15857.736831  18760.675363     34.625370                    
V 19   6514.254068  22877.972848  16096.627448       .003827                    
P 20   6351.375015 -14434.812074 -21484.356555    107.633810                    
V 20  26308.654707   6373.784084   3546.397753      -.010546                    
P 21   5077.541392  16228.442317  20473.114142     54.680129                    
V 21 -19257.565142  17192.089397  -9559.270502      -.013750                    
P 22  22762.110317  11922.469658   7011.501625    211.335568                    
V 22  -9213.214438    519.012076  29643.263977      -.001947                    
P 23   1333.774685 -23826.561509 -11438.918361    368.705230                    
V 23   6185.006101  13319.577637 -27430.119017       .016541                    
P 24  -9720.775884  21483.447618  12654.000997    116.622162                    
V 24 -13024.261781   9098.716705 -25516.202146       .028718                    
P 25   5904.229278 -22425.024225  13465.262610   -220.431937                    
V 25  11696.613074 -11701.977106 -25115.109656      -.179073                    
P 26 -11674.876171  10083.088934  21028.211979    308.765486                    
V 26  -7261.530626 -26950.607188   9199.682750       .062244                    
P 27  -2968.676885 -17783.820889  20139.314881    209.646381                    
V 27  16403.832950 -17710.463253 -13810.206044       .027923                    
P 28 -22168.343179 -12405.604287   8708.167655    -21.797316                    
V 28  10609.934551    725.666820  29037.063357      -.001573                    
P 29   4224.888198  25960.075117  -3704.166723    -40.020011                    
V 29  -3946.978826  -3960.281704 -31249.889635       .006983                    
P 30   6704.338764  16216.043128 -20317.363049     90.826228                    
V 30 -24733.377289  -4006.566566 -11466.126764       .020796                    
P 31  19233.485653  -2189.348693 -18035.431192    -25.065678                    
V 31 -15016.145670  17803.915377 -17868.036823      -.000607                    
P 32  14377.482142  -9463.080945 -19746.684333    312.954433                    
V 32  24282.002372   9544.169466  13002.846447       .017607                    
EOF
